{
  "type": "FeatureCollection",
  "features": [
    {
      "type": "Feature",
      "properties": {
        "norad_id": 66597,
        "name": "STARLINK-35820",
        "group": "last-30-days",
        "lat": -7.0540947507511325,
        "lon": -13.875521826206425,
        "alt_km": 444.55419471763526,
        "timestamp": "2025-12-18T15:47:09.959274+00:00",
        "meta_object_name": "STARLINK-35820",
        "meta_object_id": "2025-270K",
        "meta_epoch": "2025-12-18T04:04:23.198016",
        "meta_mean_motion": 15.40730414,
        "meta_eccentricity": 0.00015523,
        "meta_inclination": 42.9983,
        "meta_ra_of_asc_node": 161.3064,
        "meta_arg_of_pericenter": 282.3921,
        "meta_mean_anomaly": 77.6762,
        "meta_ephemeris_type": 0,
        "meta_classification_type": "U",
        "meta_norad_cat_id": 66597,
        "meta_element_set_no": 999,
        "meta_rev_at_epoch": 529,
        "meta_bstar": 0.0011425362,
        "meta_mean_motion_dot": 0.00047771,
        "meta_mean_motion_ddot": 0,
        "tle_line1": "1 66597U 25270K   25352.16971294  .00047771  00000+0  11425-2 0  9995",
        "tle_line2": "2 66597  42.9983 161.3064 0001552 282.3921  77.6762 15.40730414  5291"
      },
      "geometry": {
        "type": "Point",
        "coordinates": [
          -13.875521826206425,
          -7.0540947507511325
        ]
      }
    },
    {
      "type": "Feature",
      "properties": {
        "norad_id": 66598,
        "name": "STARLINK-35981",
        "group": "last-30-days",
        "lat": -42.55165120762705,
        "lon": 78.17193302210663,
        "alt_km": 446.01726195951323,
        "timestamp": "2025-12-18T15:47:09.959285+00:00",
        "meta_object_name": "STARLINK-35981",
        "meta_object_id": "2025-270L",
        "meta_epoch": "2025-12-18T06:00:02.999808",
        "meta_mean_motion": 15.4068053,
        "meta_eccentricity": 0.00020546,
        "meta_inclination": 42.9995,
        "meta_ra_of_asc_node": 160.6324,
        "meta_arg_of_pericenter": 270.3846,
        "meta_mean_anomaly": 262.7998,
        "meta_ephemeris_type": 0,
        "meta_classification_type": "U",
        "meta_norad_cat_id": 66598,
        "meta_element_set_no": 999,
        "meta_rev_at_epoch": 512,
        "meta_bstar": 0.00045680479,
        "meta_mean_motion_dot": 0.00018813,
        "meta_mean_motion_ddot": 0,
        "tle_line1": "1 66598U 25270L   25352.25003472  .00018813  00000+0  45680-3 0  9996",
        "tle_line2": "2 66598  42.9995 160.6324 0002054 270.3846 262.7998 15.40680530  5120"
      },
      "geometry": {
        "type": "Point",
        "coordinates": [
          78.17193302210663,
          -42.55165120762705
        ]
      }
    },
    {
      "type": "Feature",
      "properties": {
        "norad_id": 66599,
        "name": "STARLINK-35930",
        "group": "last-30-days",
        "lat": 1.8983858616306495,
        "lon": 160.11348735594274,
        "alt_km": 414.32430761205615,
        "timestamp": "2025-12-18T15:47:09.959295+00:00",
        "meta_object_name": "STARLINK-35930",
        "meta_object_id": "2025-270M",
        "meta_epoch": "2025-12-17T22:46:08.890464",
        "meta_mean_motion": 15.50592863,
        "meta_eccentricity": 0.00010449,
        "meta_inclination": 42.9987,
        "meta_ra_of_asc_node": 162.2237,
        "meta_arg_of_pericenter": 268.0796,
        "meta_mean_anomaly": 91.9944,
        "meta_ephemeris_type": 0,
        "meta_classification_type": "U",
        "meta_norad_cat_id": 66599,
        "meta_element_set_no": 999,
        "meta_rev_at_epoch": 515,
        "meta_bstar": 0.00078479215,
        "meta_mean_motion_dot": 0.00045992,
        "meta_mean_motion_ddot": 0,
        "tle_line1": "1 66599U 25270M   25351.94871401  .00045992  00000+0  78479-3 0  9997",
        "tle_line2": "2 66599  42.9987 162.2237 0001044 268.0796  91.9944 15.50592863  5157"
      },
      "geometry": {
        "type": "Point",
        "coordinates": [
          160.11348735594274,
          1.8983858616306495
        ]
      }
    },
    {
      "type": "Feature",
      "properties": {
        "norad_id": 66600,
        "name": "STARLINK-35980",
        "group": "last-30-days",
        "lat": -21.769068351245238,
        "lon": 132.78645668343472,
        "alt_km": 446.0479174707698,
        "timestamp": "2025-12-18T15:47:09.959306+00:00",
        "meta_object_name": "STARLINK-35980",
        "meta_object_id": "2025-270N",
        "meta_epoch": "2025-12-18T06:00:02.999808",
        "meta_mean_motion": 15.43282073,
        "meta_eccentricity": 0.00010492,
        "meta_inclination": 43,
        "meta_ra_of_asc_node": 160.5162,
        "meta_arg_of_pericenter": 254.5488,
        "meta_mean_anomaly": 326.6676,
        "meta_ephemeris_type": 0,
        "meta_classification_type": "U",
        "meta_norad_cat_id": 66600,
        "meta_element_set_no": 999,
        "meta_rev_at_epoch": 518,
        "meta_bstar": -0.076631324,
        "meta_mean_motion_dot": -0.03068918,
        "meta_mean_motion_ddot": 0,
        "tle_line1": "1 66600U 25270N   25352.25003472 -.03068918  00000+0 -76631-1 0  9994",
        "tle_line2": "2 66600  43.0000 160.5162 0001049 254.5488 326.6676 15.43282073  5183"
      },
      "geometry": {
        "type": "Point",
        "coordinates": [
          132.78645668343472,
          -21.769068351245238
        ]
      }
    },
    {
      "type": "Feature",
      "properties": {
        "norad_id": 66601,
        "name": "STARLINK-35978",
        "group": "last-30-days",
        "lat": -30.207378830457795,
        "lon": 17.068526663100435,
        "alt_km": 445.7366047953383,
        "timestamp": "2025-12-18T15:47:09.959318+00:00",
        "meta_object_name": "STARLINK-35978",
        "meta_object_id": "2025-270P",
        "meta_epoch": "2025-12-18T06:00:02.999808",
        "meta_mean_motion": 15.40686691,
        "meta_eccentricity": 0.00017738,
        "meta_inclination": 42.9991,
        "meta_ra_of_asc_node": 160.7525,
        "meta_arg_of_pericenter": 256.8954,
        "meta_mean_anomaly": 226.515,
        "meta_ephemeris_type": 0,
        "meta_classification_type": "U",
        "meta_norad_cat_id": 66601,
        "meta_element_set_no": 999,
        "meta_rev_at_epoch": 512,
        "meta_bstar": 0.00043184138,
        "meta_mean_motion_dot": 0.0001777,
        "meta_mean_motion_ddot": 0,
        "tle_line1": "1 66601U 25270P   25352.25003472  .00017770  00000+0  43184-3 0  9999",
        "tle_line2": "2 66601  42.9991 160.7525 0001773 256.8954 226.5150 15.40686691  5123"
      },
      "geometry": {
        "type": "Point",
        "coordinates": [
          17.068526663100435,
          -30.207378830457795
        ]
      }
    },
    {
      "type": "Feature",
      "properties": {
        "norad_id": 66602,
        "name": "STARLINK-36050",
        "group": "last-30-days",
        "lat": 18.014722046969737,
        "lon": -41.842913446976254,
        "alt_km": 441.5579858494557,
        "timestamp": "2025-12-18T15:47:09.959328+00:00",
        "meta_object_name": "STARLINK-36050",
        "meta_object_id": "2025-270Q",
        "meta_epoch": "2025-12-18T04:14:03.920928",
        "meta_mean_motion": 15.40722232,
        "meta_eccentricity": 0.00014492,
        "meta_inclination": 42.9987,
        "meta_ra_of_asc_node": 161.3579,
        "meta_arg_of_pericenter": 272.6572,
        "meta_mean_anomaly": 87.4119,
        "meta_ephemeris_type": 0,
        "meta_classification_type": "U",
        "meta_norad_cat_id": 66602,
        "meta_element_set_no": 999,
        "meta_rev_at_epoch": 508,
        "meta_bstar": 0.00090071849,
        "meta_mean_motion_dot": 0.00037535,
        "meta_mean_motion_ddot": 0,
        "tle_line1": "1 66602U 25270Q   25352.17643427  .00037535  00000+0  90072-3 0  9990",
        "tle_line2": "2 66602  42.9987 161.3579 0001449 272.6572  87.4119 15.40722232  5083"
      },
      "geometry": {
        "type": "Point",
        "coordinates": [
          -41.842913446976254,
          18.014722046969737
        ]
      }
    },
    {
      "type": "Feature",
      "properties": {
        "norad_id": 66603,
        "name": "STARLINK-36048",
        "group": "last-30-days",
        "lat": -42.763192626058306,
        "lon": 61.27620468178932,
        "alt_km": 446.4468706534899,
        "timestamp": "2025-12-18T15:47:09.959338+00:00",
        "meta_object_name": "STARLINK-36048",
        "meta_object_id": "2025-270R",
        "meta_epoch": "2025-12-18T06:00:02.999808",
        "meta_mean_motion": 15.40686151,
        "meta_eccentricity": 0.00014262,
        "meta_inclination": 42.9994,
        "meta_ra_of_asc_node": 160.662,
        "meta_arg_of_pericenter": 269.2074,
        "meta_mean_anomaly": 251.526,
        "meta_ephemeris_type": 0,
        "meta_classification_type": "U",
        "meta_norad_cat_id": 66603,
        "meta_element_set_no": 999,
        "meta_rev_at_epoch": 518,
        "meta_bstar": 0.00039437738,
        "meta_mean_motion_dot": 0.00016198,
        "meta_mean_motion_ddot": 0,
        "tle_line1": "1 66603U 25270R   25352.25003472  .00016198  00000+0  39438-3 0  9991",
        "tle_line2": "2 66603  42.9994 160.6620 0001426 269.2074 251.5260 15.40686151  5186"
      },
      "geometry": {
        "type": "Point",
        "coordinates": [
          61.27620468178932,
          -42.763192626058306
        ]
      }
    }
  ]
}